ORBCOMM FM20 [+]        
1 25416U 98046D   23237.90986822  .00000975  00000+0  39372-3 0  9993
2 25416  44.9953  65.0860 0000802 126.8421 233.2499 14.34331950309235
ORBCOMM FM15 [-]        
1 25418U 98046F   23237.92475489  .00001204  00000+0  47029-3 0  9993
2 25418  44.9985  65.8766 0003189 208.9020 151.1651 14.34746843309164
ORBCOMM FM14 [-]        
1 25419U 98046G   23237.92424560  .00001377  00000+0  52974-3 0  9994
2 25419  44.9975  65.2670 0002300 188.2454 281.7127 14.34842616309115
ORBCOMM FM13 [+]        
1 25420U 98046H   23237.63031507  .00001036  00000+0  41497-3 0  9999
2 25420  44.9988  70.2969 0004389 193.4267 166.6464 14.34340085308158
ORBCOMM FM21 [-]        
1 25475U 98053A   23238.06675306  .00001179  00000+0  46501-3 0  9995
2 25475  45.0088 152.3096 0001052 331.6811  28.3979 14.34366045302567
ORBCOMM FM22 [-]        
1 25476U 98053B   23237.84226985  .00001286  00000+0  49943-3 0  9998
2 25476  45.0085 151.5039 0000588 130.0621 230.0277 14.34707606302189
ORBCOMM FM23 [-]        
1 25477U 98053C   23237.88661837  .00001199  00000+0  47265-3 0  9990
2 25477  45.0090 155.5903 0000199  41.7442 318.3420 14.34339908302352
